NUSAT-26 (M SOMERVILLE) 
1 52184U 22033AD  26200.28239709  .00010878  00000+0  24569-3 0  9992
2 52184  97.2331 279.1368 0007220 127.2351 232.9557 15.43340719109656
NUSAT-33 (ALBANIA-2)    
1 55047U 23001AQ  26200.23177413  .00004653  00000+0  17143-3 0  9991
2 55047  97.3048 260.5248 0004635 295.4122  64.6638 15.28304418197202
NUSAT-35 (WILLIAMINA)   
1 55048U 23001AR  26200.29137412  .00007653  00000+0  22103-3 0  9998
2 55048  97.1828 252.2420 0009953 355.2279   4.8869 15.35885940197331
NUSAT-39 (TIKVAH ALPER) 
1 56201U 23054Z   26200.24831341  .00015462  00000+0  29592-3 0  9991
2 56201  97.3080 110.3281 0001464 291.5401  68.5693 15.48148078183416
NUSAT-38 (MARIA AGNESI) 
1 56202U 23054AA  26200.23478961  .00019262  00000+0  32849-3 0  9997
2 56202  97.3021 111.0661 0008235 309.4542  50.5981 15.51356448183473
NUSAT-37 (JOAN CLARKE)  
1 56203U 23054AB  26200.20687363  .00029787  00000+0  37081-3 0  9999
2 56203  97.2590 107.9447 0008265 133.4187 226.7759 15.59857610183636
NUSAT-40 (C SHOEMAKER)  
1 56943U 23084M   26200.26976410  .00112446  00000+0  51793-3 0  9994
2 56943  97.4873 349.5022 0003800 179.6036 180.5237 15.83267394173875
NUSAT-41 (C PAYNE-G)    
1 56944U 23084N   26200.23711987  .00006030  00000+0  21044-3 0  9995
2 56944  97.5558 337.4732 0007329 194.1976 165.9059 15.29968419172689
NUSAT-42 (M WONENBURGER)
1 56966U 23084AL  26200.33317998  .00012878  00000+0  26007-3 0  9995
2 56966  97.5758 345.8370 0006842 133.6820 226.4997 15.46618018173042
NUSAT-44 (MARIA MITCHE*)
1 59122U 24043AA  26200.32427134  .00005653  00000+0  19791-3 0  9996
2 59122  97.5491 341.0801 0006637 120.0434 240.1465 15.29897812132188
NUSAT-50 (NANCY ROMAN)  
1 60493U 24149AB  26200.21258235  .00004708  00000+0  16290-3 0  9999
2 60493  97.3776 281.2552 0004854  92.6821 267.4975 15.30358937107021
NUSAT-48 (HENRIETTA LE*)
1 60498U 24149AG  26200.20171751  .00004588  00000+0  15905-3 0  9998
2 60498  97.3907 281.5432 0005122 147.1171 213.0389 15.30313421107031
NUSAT-49 (KLARA DAN VO*)
1 60500U 24149AJ  26199.78702219  .00001660  00000+0  60121-4 0  9990
2 60500  97.3772 280.8605 0002863 154.7082 205.4299 15.29814234106965
NUSAT-45 (UZMASAT-1)    
1 62640U 25009AH  26200.16801174  .00004429  00000+0  15585-3 0  9997
2 62640  97.3582 281.0786 0002158 165.9507 194.1794 15.29849298 83817
NUSAT-52                
1 66692U 25276AC  26200.14374777  .00002648  00000+0  12591-3 0  9991
2 66692  97.4191 273.1651 0001708 251.6872 108.4177 15.20058397 35279
NUSAT-51 (YVONNE BRILL) 
1 66740U 25276CC  26200.20935061  .00003087  00000+0  14405-3 0  9995
2 66740  97.4197 273.3759 0002080 214.7847 145.3252 15.20591526 35298
