{"fetched_at":"2026-07-19T17:31:46.238Z","source":"https://celestrak.org/NORAD/elements/gp.php?NAME=NUSAT&FORMAT=JSON","constellation":"satellogic","records":[{"OBJECT_NAME":"NUSAT-26 (M SOMERVILLE)","OBJECT_ID":"2022-033AD","EPOCH":"2026-07-19T06:46:39.108576","CLASSIFICATION_TYPE":"U","MEAN_MOTION":15.43340719,"ECCENTRICITY":0.00072204,"INCLINATION":97.2331,"RA_OF_ASC_NODE":279.1368,"ARG_OF_PERICENTER":127.2351,"MEAN_ANOMALY":232.9557,"EPHEMERIS_TYPE":0,"NORAD_CAT_ID":52184,"ELEMENT_SET_NO":999,"REV_AT_EPOCH":10965,"BSTAR":0.00024568662,"MEAN_MOTION_DOT":0.00010878,"MEAN_MOTION_DDOT":0},{"OBJECT_NAME":"NUSAT-33 (ALBANIA-2)","OBJECT_ID":"2023-001AQ","EPOCH":"2026-07-19T05:33:45.284832","CLASSIFICATION_TYPE":"U","MEAN_MOTION":15.28304418,"ECCENTRICITY":0.00046352,"INCLINATION":97.3048,"RA_OF_ASC_NODE":260.5248,"ARG_OF_PERICENTER":295.4122,"MEAN_ANOMALY":64.6638,"EPHEMERIS_TYPE":0,"NORAD_CAT_ID":55047,"ELEMENT_SET_NO":999,"REV_AT_EPOCH":19720,"BSTAR":0.00017143342,"MEAN_MOTION_DOT":0.00004653,"MEAN_MOTION_DDOT":0},{"OBJECT_NAME":"NUSAT-35 (WILLIAMINA)","OBJECT_ID":"2023-001AR","EPOCH":"2026-07-19T06:59:34.723968","CLASSIFICATION_TYPE":"U","MEAN_MOTION":15.3588594,"ECCENTRICITY":0.00099536,"INCLINATION":97.1828,"RA_OF_ASC_NODE":252.242,"ARG_OF_PERICENTER":355.2279,"MEAN_ANOMALY":4.8869,"EPHEMERIS_TYPE":0,"NORAD_CAT_ID":55048,"ELEMENT_SET_NO":999,"REV_AT_EPOCH":19733,"BSTAR":0.00022102825,"MEAN_MOTION_DOT":0.00007653,"MEAN_MOTION_DDOT":0},{"OBJECT_NAME":"NUSAT-39 (TIKVAH ALPER)","OBJECT_ID":"2023-054Z","EPOCH":"2026-07-19T05:57:34.278624","CLASSIFICATION_TYPE":"U","MEAN_MOTION":15.48148078,"ECCENTRICITY":0.00014641,"INCLINATION":97.308,"RA_OF_ASC_NODE":110.3281,"ARG_OF_PERICENTER":291.5401,"MEAN_ANOMALY":68.5693,"EPHEMERIS_TYPE":0,"NORAD_CAT_ID":56201,"ELEMENT_SET_NO":999,"REV_AT_EPOCH":18341,"BSTAR":0.00029591991,"MEAN_MOTION_DOT":0.00015462,"MEAN_MOTION_DDOT":0},{"OBJECT_NAME":"NUSAT-38 (MARIA AGNESI)","OBJECT_ID":"2023-054AA","EPOCH":"2026-07-19T05:38:05.822304","CLASSIFICATION_TYPE":"U","MEAN_MOTION":15.51356448,"ECCENTRICITY":0.00082357,"INCLINATION":97.3021,"RA_OF_ASC_NODE":111.0661,"ARG_OF_PERICENTER":309.4542,"MEAN_ANOMALY":50.5981,"EPHEMERIS_TYPE":0,"NORAD_CAT_ID":56202,"ELEMENT_SET_NO":999,"REV_AT_EPOCH":18347,"BSTAR":0.00032848879,"MEAN_MOTION_DOT":0.00019262,"MEAN_MOTION_DDOT":0},{"OBJECT_NAME":"NUSAT-37 (JOAN CLARKE)","OBJECT_ID":"2023-054AB","EPOCH":"2026-07-19T04:57:53.881632","CLASSIFICATION_TYPE":"U","MEAN_MOTION":15.5985761,"ECCENTRICITY":0.0008265,"INCLINATION":97.259,"RA_OF_ASC_NODE":107.9447,"ARG_OF_PERICENTER":133.4187,"MEAN_ANOMALY":226.7759,"EPHEMERIS_TYPE":0,"NORAD_CAT_ID":56203,"ELEMENT_SET_NO":999,"REV_AT_EPOCH":18363,"BSTAR":0.00037080818,"MEAN_MOTION_DOT":0.00029787,"MEAN_MOTION_DDOT":0},{"OBJECT_NAME":"NUSAT-40 (C SHOEMAKER)","OBJECT_ID":"2023-084M","EPOCH":"2026-07-19T06:28:27.618240","CLASSIFICATION_TYPE":"U","MEAN_MOTION":15.83267394,"ECCENTRICITY":0.00038005,"INCLINATION":97.4873,"RA_OF_ASC_NODE":349.5022,"ARG_OF_PERICENTER":179.6036,"MEAN_ANOMALY":180.5237,"EPHEMERIS_TYPE":0,"NORAD_CAT_ID":56943,"ELEMENT_SET_NO":999,"REV_AT_EPOCH":17387,"BSTAR":0.00051793159,"MEAN_MOTION_DOT":0.00112446,"MEAN_MOTION_DDOT":0},{"OBJECT_NAME":"NUSAT-41 (C PAYNE-G)","OBJECT_ID":"2023-084N","EPOCH":"2026-07-19T05:41:27.156768","CLASSIFICATION_TYPE":"U","MEAN_MOTION":15.29968419,"ECCENTRICITY":0.00073294,"INCLINATION":97.5558,"RA_OF_ASC_NODE":337.4732,"ARG_OF_PERICENTER":194.1976,"MEAN_ANOMALY":165.9059,"EPHEMERIS_TYPE":0,"NORAD_CAT_ID":56944,"ELEMENT_SET_NO":999,"REV_AT_EPOCH":17268,"BSTAR":0.00021043598,"MEAN_MOTION_DOT":0.0000603,"MEAN_MOTION_DDOT":0},{"OBJECT_NAME":"NUSAT-42 (M WONENBURGER)","OBJECT_ID":"2023-084AL","EPOCH":"2026-07-19T07:59:46.750272","CLASSIFICATION_TYPE":"U","MEAN_MOTION":15.46618018,"ECCENTRICITY":0.0006842,"INCLINATION":97.5758,"RA_OF_ASC_NODE":345.837,"ARG_OF_PERICENTER":133.682,"MEAN_ANOMALY":226.4997,"EPHEMERIS_TYPE":0,"NORAD_CAT_ID":56966,"ELEMENT_SET_NO":999,"REV_AT_EPOCH":17304,"BSTAR":0.00026006889,"MEAN_MOTION_DOT":0.00012878,"MEAN_MOTION_DDOT":0},{"OBJECT_NAME":"NUSAT-44 (MARIA MITCHELL)","OBJECT_ID":"2024-043AA","EPOCH":"2026-07-19T07:46:57.043776","CLASSIFICATION_TYPE":"U","MEAN_MOTION":15.29897812,"ECCENTRICITY":0.0006637,"INCLINATION":97.5491,"RA_OF_ASC_NODE":341.0801,"ARG_OF_PERICENTER":120.0434,"MEAN_ANOMALY":240.1465,"EPHEMERIS_TYPE":0,"NORAD_CAT_ID":59122,"ELEMENT_SET_NO":999,"REV_AT_EPOCH":13218,"BSTAR":0.00019790882,"MEAN_MOTION_DOT":0.00005653,"MEAN_MOTION_DDOT":0},{"OBJECT_NAME":"NUSAT-50 (NANCY ROMAN)","OBJECT_ID":"2024-149AB","EPOCH":"2026-07-19T05:06:07.115040","CLASSIFICATION_TYPE":"U","MEAN_MOTION":15.30358937,"ECCENTRICITY":0.00048542,"INCLINATION":97.3776,"RA_OF_ASC_NODE":281.2552,"ARG_OF_PERICENTER":92.6821,"MEAN_ANOMALY":267.4975,"EPHEMERIS_TYPE":0,"NORAD_CAT_ID":60493,"ELEMENT_SET_NO":999,"REV_AT_EPOCH":10702,"BSTAR":0.00016290429,"MEAN_MOTION_DOT":0.00004708,"MEAN_MOTION_DDOT":0},{"OBJECT_NAME":"NUSAT-48 (HENRIETTA LEAVITT)","OBJECT_ID":"2024-149AG","EPOCH":"2026-07-19T04:50:28.392864","CLASSIFICATION_TYPE":"U","MEAN_MOTION":15.30313421,"ECCENTRICITY":0.00051221,"INCLINATION":97.3907,"RA_OF_ASC_NODE":281.5432,"ARG_OF_PERICENTER":147.1171,"MEAN_ANOMALY":213.0389,"EPHEMERIS_TYPE":0,"NORAD_CAT_ID":60498,"ELEMENT_SET_NO":999,"REV_AT_EPOCH":10703,"BSTAR":0.0001590467,"MEAN_MOTION_DOT":0.00004588,"MEAN_MOTION_DDOT":0},{"OBJECT_NAME":"NUSAT-49 (KLARA DAN VON NEUMANN)","OBJECT_ID":"2024-149AJ","EPOCH":"2026-07-18T18:53:18.717216","CLASSIFICATION_TYPE":"U","MEAN_MOTION":15.29814234,"ECCENTRICITY":0.00028636,"INCLINATION":97.3772,"RA_OF_ASC_NODE":280.8605,"ARG_OF_PERICENTER":154.7082,"MEAN_ANOMALY":205.4299,"EPHEMERIS_TYPE":0,"NORAD_CAT_ID":60500,"ELEMENT_SET_NO":999,"REV_AT_EPOCH":10696,"BSTAR":0.00006012141,"MEAN_MOTION_DOT":0.0000166,"MEAN_MOTION_DDOT":0},{"OBJECT_NAME":"NUSAT-45 (UZMASAT-1)","OBJECT_ID":"2025-009AH","EPOCH":"2026-07-19T04:01:56.214336","CLASSIFICATION_TYPE":"U","MEAN_MOTION":15.29849298,"ECCENTRICITY":0.0002158,"INCLINATION":97.3582,"RA_OF_ASC_NODE":281.0786,"ARG_OF_PERICENTER":165.9507,"MEAN_ANOMALY":194.1794,"EPHEMERIS_TYPE":0,"NORAD_CAT_ID":62640,"ELEMENT_SET_NO":999,"REV_AT_EPOCH":8381,"BSTAR":0.00015584875,"MEAN_MOTION_DOT":0.00004429,"MEAN_MOTION_DDOT":0},{"OBJECT_NAME":"NUSAT-52","OBJECT_ID":"2025-276AC","EPOCH":"2026-07-19T03:26:59.807328","CLASSIFICATION_TYPE":"U","MEAN_MOTION":15.20058397,"ECCENTRICITY":0.00017084,"INCLINATION":97.4191,"RA_OF_ASC_NODE":273.1651,"ARG_OF_PERICENTER":251.6872,"MEAN_ANOMALY":108.4177,"EPHEMERIS_TYPE":0,"NORAD_CAT_ID":66692,"ELEMENT_SET_NO":999,"REV_AT_EPOCH":3527,"BSTAR":0.00012590909,"MEAN_MOTION_DOT":0.00002648,"MEAN_MOTION_DDOT":0},{"OBJECT_NAME":"NUSAT-51 (YVONNE BRILL)","OBJECT_ID":"2025-276CC","EPOCH":"2026-07-19T05:01:27.892704","CLASSIFICATION_TYPE":"U","MEAN_MOTION":15.20591526,"ECCENTRICITY":0.00020806,"INCLINATION":97.4197,"RA_OF_ASC_NODE":273.3759,"ARG_OF_PERICENTER":214.7847,"MEAN_ANOMALY":145.3252,"EPHEMERIS_TYPE":0,"NORAD_CAT_ID":66740,"ELEMENT_SET_NO":999,"REV_AT_EPOCH":3529,"BSTAR":0.00014405078,"MEAN_MOTION_DOT":0.00003087,"MEAN_MOTION_DDOT":0}]}
